{"type": "FeatureCollection", "features": [ {"type": "Feature", "properties": {"norad_id": 36539, "name": "COSMOS 2251 DEB", "group": "cosmos-2251-debris", "lat": 55.019895075694734, "lon": 89.13630640639431, "alt_km": 707.2578981073784, "timestamp": "2025-12-07T14:37:05.600921+00:00", "meta": {"OBJECT_NAME": "COSMOS 2251 DEB", "OBJECT_ID": "1993-036BCZ", "EPOCH": "2025-12-06T21:53:46.408416", "MEAN_MOTION": 14.59239711, "ECCENTRICITY": 0.00275399, "INCLINATION": 74.0247, "RA_OF_ASC_NODE": 66.2961, "ARG_OF_PERICENTER": 212.2795, "MEAN_ANOMALY": 147.6686, "EPHEMERIS_TYPE": 0, "CLASSIFICATION_TYPE": "U", "NORAD_CAT_ID": 36539, "ELEMENT_SET_NO": 999, "REV_AT_EPOCH": 83862, "BSTAR": 0.0012536084, "MEAN_MOTION_DOT": 5.923e-05, "MEAN_MOTION_DDOT": 0}, "tle": {"line1": "1 36539U 93036BCZ 25340.91234269  .00005923  00000+0  12536-2 0  9994", "line2": "2 36539  74.0247  66.2961 0027539 212.2795 147.6686 14.59239711838623"}}, "geometry": {"type": "Point", "coordinates": [89.13630640639431, 55.019895075694734]}}, {"type": "Feature", "properties": {"norad_id": 36540, "name": "COSMOS 2251 DEB", "group": "cosmos-2251-debris", "lat": 34.34918486506447, "lon": -158.4257277828241, "alt_km": 703.408071789444, "timestamp": "2025-12-07T14:37:05.600931+00:00", "meta": {"OBJECT_NAME": "COSMOS 2251 DEB", "OBJECT_ID": "1993-036BDA", "EPOCH": "2025-12-06T15:24:19.698624", "MEAN_MOTION": 14.58398938, "ECCENTRICITY": 0.00152428, "INCLINATION": 74.0275, "RA_OF_ASC_NODE": 192.1274, "ARG_OF_PERICENTER": 262.6337, "MEAN_ANOMALY": 97.3096, "EPHEMERIS_TYPE": 0, "CLASSIFICATION_TYPE": "U", "NORAD_CAT_ID": 36540, "ELEMENT_SET_NO": 999, "REV_AT_EPOCH": 85921, "BSTAR": 0.0017594671, "MEAN_MOTION_DOT": 8.148e-05, "MEAN_MOTION_DDOT": 0}, "tle": {"line1": "1 36540U 93036BDA 25340.64189466  .00008148  00000+0  17595-2 0  9996", "line2": "2 36540  74.0275 192.1274 0015242 262.6337  97.3096 14.58398938859211"}}, "geometry": {"type": "Point", "coordinates": [-158.4257277828241, 34.34918486506447]}}, {"type": "Feature", "properties": {"norad_id": 36550, "name": "COSMOS 2251 DEB", "group": "cosmos-2251-debris", "lat": 73.86425663770747, "lon": -59.41074504786744, "alt_km": 847.3488596802763, "timestamp": "2025-12-07T14:37:05.600941+00:00", "meta": {"OBJECT_NAME": "COSMOS 2251 DEB", "OBJECT_ID": "1993-036BDL", "EPOCH": "2025-12-05T23:29:18.021984", "MEAN_MOTION": 14.27168955, "ECCENTRICITY": 0.00788112, "INCLINATION": 74.0447, "RA_OF_ASC_NODE": 204.9723, "ARG_OF_PERICENTER": 257.0912, "MEAN_ANOMALY": 102.1425, "EPHEMERIS_TYPE": 0, "CLASSIFICATION_TYPE": "U", "NORAD_CAT_ID": 36550, "ELEMENT_SET_NO": 999, "REV_AT_EPOCH": 84499, "BSTAR": 0.0010210292, "MEAN_MOTION_DOT": 2.55e-05, "MEAN_MOTION_DDOT": 0}, "tle": {"line1": "1 36550U 93036BDL 25339.97868081  .00002550  00000+0  10210-2 0  9996", "line2": "2 36550  74.0447 204.9723 0078811 257.0912 102.1425 14.27168955844992"}}, "geometry": {"type": "Point", "coordinates": [-59.41074504786744, 73.86425663770747]}}, {"type": "Feature", "properties": {"norad_id": 36551, "name": "COSMOS 2251 DEB", "group": "cosmos-2251-debris", "lat": -19.3166831313158, "lon": -148.91632239667314, "alt_km": 589.3143866153896, "timestamp": "2025-12-07T14:37:05.600951+00:00", "meta": {"OBJECT_NAME": "COSMOS 2251 DEB", "OBJECT_ID": "1993-036BDM", "EPOCH": "2025-12-06T20:08:51.036576", "MEAN_MOTION": 15.02288962, "ECCENTRICITY": 0.00510444, "INCLINATION": 73.8878, "RA_OF_ASC_NODE": 26.8516, "ARG_OF_PERICENTER": 336.4781, "MEAN_ANOMALY": 23.4071, "EPHEMERIS_TYPE": 0, "CLASSIFICATION_TYPE": "U", "NORAD_CAT_ID": 36551, "ELEMENT_SET_NO": 999, "REV_AT_EPOCH": 66843, "BSTAR": 0.0021918533, "MEAN_MOTION_DOT": 0.0002986, "MEAN_MOTION_DDOT": 0}, "tle": {"line1": "1 36551U 93036BDM 25340.83947959  .00029860  00000+0  21919-2 0  9997", "line2": "2 36551  73.8878  26.8516 0051044 336.4781  23.4071 15.02288962668434"}}, "geometry": {"type": "Point", "coordinates": [-148.91632239667314, -19.3166831313158]}}, {"type": "Feature", "properties": {"norad_id": 36557, "name": "COSMOS 2251 DEB", "group": "cosmos-2251-debris", "lat": -73.67617694074994, "lon": 57.516101514360145, "alt_km": 628.8791814119086, "timestamp": "2025-12-07T14:37:05.600961+00:00", "meta": {"OBJECT_NAME": "COSMOS 2251 DEB", "OBJECT_ID": "1993-036BDT", "EPOCH": "2025-12-05T17:31:03.797184", "MEAN_MOTION": 14.7773075, "ECCENTRICITY": 0.00207314, "INCLINATION": 73.9789, "RA_OF_ASC_NODE": 140.0591, "ARG_OF_PERICENTER": 291.0681, "MEAN_ANOMALY": 68.8277, "EPHEMERIS_TYPE": 0, "CLASSIFICATION_TYPE": "U", "NORAD_CAT_ID": 36557, "ELEMENT_SET_NO": 999, "REV_AT_EPOCH": 33793, "BSTAR": 0.0052902478, "MEAN_MOTION_DOT": 0.00038255, "MEAN_MOTION_DDOT": 0}, "tle": {"line1": "1 36557U 93036BDT 25339.72990506  .00038255  00000+0  52902-2 0  9999", "line2": "2 36557  73.9789 140.0591 0020731 291.0681  68.8277 14.77730750337935"}}, "geometry": {"type": "Point", "coordinates": [57.516101514360145, -73.67617694074994]}}, {"type": "Feature", "properties": {"norad_id": 36558, "name": "COSMOS 2251 DEB", "group": "cosmos-2251-debris", "lat": -73.98715894091666, "lon": 78.6264657945387, "alt_km": 706.5607518886472, "timestamp": "2025-12-07T14:37:05.600971+00:00", "meta": {"OBJECT_NAME": "COSMOS 2251 DEB", "OBJECT_ID": "1993-036BDU", "EPOCH": "2025-12-06T06:01:43.478688", "MEAN_MOTION": 14.55287129, "ECCENTRICITY": 0.00130881, "INCLINATION": 74.0413, "RA_OF_ASC_NODE": 166.8264, "ARG_OF_PERICENTER": 255.1947, "MEAN_ANOMALY": 104.7766, "EPHEMERIS_TYPE": 0, "CLASSIFICATION_TYPE": "U", "NORAD_CAT_ID": 36558, "ELEMENT_SET_NO": 999, "REV_AT_EPOCH": 85174, "BSTAR": 0.0015050875, "MEAN_MOTION_DOT": 6.507e-05, "MEAN_MOTION_DDOT": 0}, "tle": {"line1": "1 36558U 93036BDU 25340.25119767  .00006507  00000+0  15051-2 0  9991", "line2": "2 36558  74.0413 166.8264 0013088 255.1947 104.7766 14.55287129851744"}}, "geometry": {"type": "Point", "coordinates": [78.6264657945387, -73.98715894091666]}}, {"type": "Feature", "properties": {"norad_id": 36559, "name": "COSMOS 2251 DEB", "group": "cosmos-2251-debris", "lat": 39.85799093497112, "lon": -175.15776935729775, "alt_km": 885.6439169966598, "timestamp": "2025-12-07T14:37:05.600981+00:00", "meta": {"OBJECT_NAME": "COSMOS 2251 DEB", "OBJECT_ID": "1993-036BDV", "EPOCH": "2025-12-03T03:17:00.548160", "MEAN_MOTION": 13.95062123, "ECCENTRICITY": 0.02603187, "INCLINATION": 74.1298, "RA_OF_ASC_NODE": 26.2197, "ARG_OF_PERICENTER": 61.9669, "MEAN_ANOMALY": 300.7529, "EPHEMERIS_TYPE": 0, "CLASSIFICATION_TYPE": "U", "NORAD_CAT_ID": 36559, "ELEMENT_SET_NO": 999, "REV_AT_EPOCH": 80960, "BSTAR": 0.0032733881, "MEAN_MOTION_DOT": 5.835e-05, "MEAN_MOTION_DDOT": 0}, "tle": {"line1": "1 36559U 93036BDV 25337.13681190  .00005835  00000+0  32734-2 0  9999", "line2": "2 36559  74.1298  26.2197 0260318  61.9669 300.7529 13.95062123809606"}}, "geometry": {"type": "Point", "coordinates": [-175.15776935729775, 39.85799093497112]}}, {"type": "Feature", "properties": {"norad_id": 36614, "name": "COSMOS 2251 DEB", "group": "cosmos-2251-debris", "lat": -17.099190957903964, "lon": 9.445276673223946, "alt_km": 690.6486240528411, "timestamp": "2025-12-07T14:37:05.600991+00:00", "meta": {"OBJECT_NAME": "COSMOS 2251 DEB", "OBJECT_ID": "1993-036BEC", "EPOCH": "2025-12-03T20:55:07.059072", "MEAN_MOTION": 14.60089968, "ECCENTRICITY": 0.0016551, "INCLINATION": 74.0216, "RA_OF_ASC_NODE": 191.525, "ARG_OF_PERICENTER": 261.9036, "MEAN_ANOMALY": 98.0252, "EPHEMERIS_TYPE": 0, "CLASSIFICATION_TYPE": "U", "NORAD_CAT_ID": 36614, "ELEMENT_SET_NO": 999, "REV_AT_EPOCH": 65483, "BSTAR": 0.0023551, "MEAN_MOTION_DOT": 0.00011335, "MEAN_MOTION_DDOT": 0}, "tle": {"line1": "1 36614U 93036BEC 25337.87160948  .00011335  00000+0  23551-2 0  9994", "line2": "2 36614  74.0216 191.5250 0016551 261.9036  98.0252 14.60089968654833"}}, "geometry": {"type": "Point", "coordinates": [9.445276673223946, -17.099190957903964]}}, {"type": "Feature", "properties": {"norad_id": 36622, "name": "COSMOS 2251 DEB", "group": "cosmos-2251-debris", "lat": -30.090624677851803, "lon": 145.9731437554161, "alt_km": 608.4772750353732, "timestamp": "2025-12-07T14:37:05.601001+00:00", "meta": {"OBJECT_NAME": "COSMOS 2251 DEB", "OBJECT_ID": "1993-036BEL", "EPOCH": "2025-12-05T18:50:31.173792", "MEAN_MOTION": 14.76102152, "ECCENTRICITY": 0.00686855, "INCLINATION": 74.0122, "RA_OF_ASC_NODE": 159.1111, "ARG_OF_PERICENTER": 295.8754, "MEAN_ANOMALY": 63.5348, "EPHEMERIS_TYPE": 0, "CLASSIFICATION_TYPE": "U", "NORAD_CAT_ID": 36622, "ELEMENT_SET_NO": 999, "REV_AT_EPOCH": 66647, "BSTAR": 0.0011321064, "MEAN_MOTION_DOT": 8.096e-05, "MEAN_MOTION_DDOT": 0}, "tle": {"line1": "1 36622U 93036BEL 25339.78508303  .00008096  00000+0  11321-2 0  9998", "line2": "2 36622  74.0122 159.1111 0068685 295.8754  63.5348 14.76102152666476"}}, "geometry": {"type": "Point", "coordinates": [145.9731437554161, -30.090624677851803]}}, {"type": "Feature", "properties": {"norad_id": 36632, "name": "COSMOS 2251 DEB", "group": "cosmos-2251-debris", "lat": 18.196929986564516, "lon": -52.67113430210711, "alt_km": 729.1073135904926, "timestamp": "2025-12-07T14:37:05.601010+00:00", "meta": {"OBJECT_NAME": "COSMOS 2251 DEB", "OBJECT_ID": "1993-036BEW", "EPOCH": "2025-12-06T15:14:20.059296", "MEAN_MOTION": 14.43120939, "ECCENTRICITY": 0.00315725, "INCLINATION": 73.999, "RA_OF_ASC_NODE": 303.7287, "ARG_OF_PERICENTER": 53.381, "MEAN_ANOMALY": 307.0243, "EPHEMERIS_TYPE": 0, "CLASSIFICATION_TYPE": "U", "NORAD_CAT_ID": 36632, "ELEMENT_SET_NO": 999, "REV_AT_EPOCH": 65127, "BSTAR": 0.0015554833, "MEAN_MOTION_DOT": 5.23e-05, "MEAN_MOTION_DDOT": 0}, "tle": {"line1": "1 36632U 93036BEW 25340.63495439  .00005230  00000+0  15555-2 0  9990", "line2": "2 36632  73.9990 303.7287 0031572  53.3810 307.0243 14.43120939651273"}}, "geometry": {"type": "Point", "coordinates": [-52.67113430210711, 18.196929986564516]}}]}